satname,norad_id,inclination_deg,eccentricity,mean_motion_rev_per_day,perigee_km,apogee_km,l1,l2
STARLINK-1480,45741,53.0519,0.0001663,15.06408709,546.0331852098434,548.3365472625537,1 45741U 20038M   25308.76542198  .00003315  00000+0  24128-3 0  9995,2 45741  53.0519  77.4230 0001663  78.0125 282.1050 15.06408709297374
STARLINK-1500,45744,53.0412,0.0002025,15.27733834,481.19920344145976,483.9777972691036,1 45744U 20038Q   25308.68589007  .00022893  00000+0  84382-3 0  9999,2 45744  53.0412  55.9467 0002025 205.6634 154.4264 15.27733834297661
STARLINK-1504,45746,53.0298,0.0001751,15.40611002,443.1102711615449,445.4994903081788,1 45746U 20038S   25308.59281661  .00030506  00000+0  74487-3 0  9991,2 45746  53.0298  20.5965 0001751 244.5355 115.5467 15.40611002298147
STARLINK-1506,45747,53.06,0.000192,15.2138951,500.32755684671065,502.96939446936267,1 45747U 20038T   25308.46225681  .00009555  00000+0  43450-3 0  9994,2 45747  53.0600  59.6685 0001920 230.2256 129.8571 15.21389510297594
STARLINK-1464,45751,53.0554,0.0001518,15.06408511,546.1342091204879,548.2367370233133,1 45751U 20038X   25308.70092432  .00007089  00000+0  49419-3 0  9993,2 45751  53.0554  57.7133 0001518  90.5015 269.6148 15.06408511297642
STARLINK-1477,45754,53.0541,0.0001371,15.06940501,544.6062571357015,546.5047336179332,1 45754U 20038AA  25308.71431587  .00030017  00000+0  19962-2 0  9991,2 45754  53.0541  57.6360 0001371  36.0911 324.0170 15.06940501297640
STARLINK-1478,45755,53.0545,0.0001584,15.06442796,545.9834430314313,548.1773519029475,1 45755U 20038AB  25308.46869932 -.00003970  00000+0 -24747-3 0  9991,2 45755  53.0545  58.7533 0001584  90.0507 270.0664 15.06442796297591
STARLINK-1484,45756,53.0157,0.0002448,15.61340079,382.1298762763654,385.4405133829541,1 45756U 20038AC  25308.91668980  .00153019  00000+0  17382-2 0  9996,2 45756  53.0157 320.6698 0002448  15.4085 226.8178 15.61340079  5932
STARLINK-1493,45759,53.0533,0.0001465,15.06414284,546.1532227312246,548.1823370317297,1 45759U 20038AF  25308.72302492  .00003987  00000+0  28627-3 0  9994,2 45759  53.0533  57.6132 0001465  84.2431 275.8725 15.06414284297631
STARLINK-1494,45760,53.056,0.000277,15.51659156,410.00063582212806,413.7623060550286,1 45760U 20038AG  25308.65898529  .00035926  00000+0  59905-3 0  9990,2 45760  53.0560  41.6755 0002770  27.0381 333.0771 15.51659156297868
STARLINK-1502,45764,53.0547,0.0001352,15.06411285,546.2406688056199,548.1132737034468,1 45764U 20038AL  25308.68985852  .00001140  00000+0  95413-4 0  9999,2 45764  53.0547  57.7619 0001352  91.0623 269.0521 15.06411285297645
STARLINK-1470,45772,53.052,0.0003044,15.18018432,509.73274041008517,513.9273523479214,1 45772U 20038AU  25308.64600606  .00011581  00000+0  57676-3 0  9993,2 45772  53.0520  30.0944 0003044 268.3582  91.7063 15.18018432298027
STARLINK-1482,45773,53.0548,0.0001254,15.06432446,546.2436911668883,547.9805436455345,1 45773U 20038AV  25308.65485811  .00017368  00000+0  11809-2 0  9990,2 45773  53.0548  37.9196 0001254  72.3905 287.7221 15.06432446297918
STARLINK-1496,45780,53.0551,0.0001404,15.06420608,546.1760880365164,548.1207081763059,1 45780U 20038BC  25308.68801009  .00007492  00000+0  52106-3 0  9995,2 45780  53.0551  37.7701 0001404  89.4924 270.6226 15.06420608297909
STARLINK-1497,45781,53.0392,0.0006269,15.55164093,397.42540864862985,405.9259377783055,1 45781U 20038BD  25308.91668980  .00165880  00000+0  23712-2 0  9997,2 45781  53.0392 340.5892 0006269 311.5989 311.0270 15.55164093  5861
STARLINK-1510,45784,53.0318,0.0002601,15.71352847,353.27835089901055,356.7809441890622,1 45784U 20038BG  25308.91668980  .00233608  00000+0  17546-2 0  9992,2 45784  53.0318 316.2734 0002601  62.5822 328.1503 15.71352847  5954
STARLINK-1513,45786,53.056,0.0001344,15.06402779,546.2722750151488,548.1338064180945,1 45786U 20038BJ  25308.51846660  .00001861  00000+0  14377-3 0  9997,2 45786  53.0560  38.5345 0001344  91.7856 268.3287 15.06402779297899
STARLINK-1522,46027,53.0542,0.000198,15.06402491,545.8327058897348,548.5751408953984,1 46027U 20055A   25308.76450388 -.00001982  00000+0 -11418-3 0  9999,2 46027  53.0542 327.4272 0001980  86.4777 273.6438 15.06402491290055
STARLINK-1523,46028,53.0552,0.0001468,15.06405338,546.1785590187656,548.2118365520355,1 46028U 20055B   25308.77925041  .00000919  00000+0  80575-4 0  9992,2 46028  53.0552 327.3656 0001468  89.4478 270.6679 15.06405338290073
STARLINK-1526,46029,53.0547,0.0001535,15.06414327,546.104613831274,548.2306823582394,1 46029U 20055C   25308.50648483  .00003267  00000+0  23805-3 0  9997,2 46029  53.0547 328.5857 0001535  82.1955 277.9209 15.06414327290021
STARLINK-1555,46032,53.0529,0.0001162,15.06412588,546.3682567805181,547.9776988193589,1 46032U 20055F   25308.75712829  .00001698  00000+0  13278-3 0  9993,2 46032  53.0529 327.4606 0001162  84.2246 275.8875 15.06412588290064
STARLINK-1556,46033,53.0541,0.0001415,15.06425897,546.15226291001,548.1121140903551,1 46033U 20055G   25308.47330975  .00007809  00000+0  54216-3 0  9998,2 46033  53.0541 328.7368 0001415  88.9650 271.1501 15.06425897289991
STARLINK-1557,46034,53.0546,0.0001288,15.0639797,546.3257939072782,548.1097652985036,1 46034U 20055H   25308.34431187 -.00001724  00000+0 -96874-4 0  9991,2 46034  53.0546 329.3151 0001288  87.9998 272.1139 15.06397970289972
STARLINK-1558,46035,53.0552,0.0001458,15.06419012,546.1435821851264,548.1629968335483,1 46035U 20055J   25308.48437160  .00005790  00000+0  40704-3 0  9999,2 46035  53.0552 328.6871 0001458  91.6127 268.5029 15.06419012290023
STARLINK-1560,46036,53.0544,0.000148,15.06421941,546.1193711152719,548.1692543838471,1 46036U 20055K   25308.46962714  .00007621  00000+0  52964-3 0  9992,2 46036  53.0544 328.7564 0001480  88.7973 271.3186 15.06421941290026
STARLINK-1567,46038,53.0549,0.0001538,15.06412831,546.1071204903665,548.2373456104533,1 46038U 20055M   25308.74607272  .00000780  00000+0  71253-4 0  9992,2 46038  53.0549 327.5125 0001538  85.7013 274.4151 15.06412831290056
STARLINK-1569,46039,53.0555,0.000182,15.06405455,545.9344288046586,548.4552495941261,1 46039U 20055N   25308.75344605  .00001139  00000+0  95316-4 0  9997,2 46039  53.0555 327.4781 0001820  84.5163 275.6034 15.06405455290055
STARLINK-1582,46043,53.0544,0.0001559,15.06405604,546.1147233761094,548.2740417011846,1 46043U 20055S   25308.76081609  .00000600  00000+0  59162-4 0  9996,2 46043  53.0544 327.4411 0001559  76.3884 283.7278 15.06405604290052
